STARLINK-36500          
1 67320U 26002R   26023.85190708 -.00533855  00000+0 -37743-2 0  9995
2 67320  42.9994 221.7884 0001929 316.3225  43.7491 15.74563136  4241
STARLINK-36462          
1 67321U 26002S   26024.16667824 -.02040553  00000+0 -16589-1 0  9993
2 67321  42.9992 219.8752 0001864 270.9367  78.1768 15.72843111  4265
STARLINK-36434          
1 67322U 26002T   26023.91469244  .00995776  00000+0  54828-2 0  9993
2 67322  42.9984 221.3994 0014127 293.4863  66.4522 15.76494826  4199
STARLINK-36497          
1 67323U 26002U   26024.16667824 -.02047924  00000+0 -16655-1 0  9998
2 67323  42.9994 219.8702 0001683 276.7707  74.2584 15.72848187  4323
STARLINK-36471          
1 67324U 26002V   26024.16667824 -.02049925  00000+0 -16672-1 0  9991
2 67324  42.9993 219.8607 0001838 275.9789  78.8858 15.72848001  4262
STARLINK-36473          
1 67325U 26002W   26023.91367604  .00985184  00000+0  54292-2 0  9990
2 67325  42.9980 221.3902 0014132 292.8525  67.0852 15.76498860  4354
STARLINK-36430          
1 67326U 26002X   26024.16667824 -.02043537  00000+0 -16616-1 0  9994
2 67326  42.9993 219.8500 0001833 270.9080  87.7917 15.72844205  4414
STARLINK-36501          
1 67327U 26002Y   26023.84986839  .00187321  00000+0  12096-2 0  9994
2 67327  42.9991 221.7697 0004246 138.9671 221.1518 15.74765594  4182
STARLINK-36489          
1 67328U 26002Z   26024.16667824 -.02027836  00000+0 -16479-1 0  9997
2 67328  42.9993 219.8460 0001783 272.9307  87.6917 15.72832452  4419
STARLINK-36496          
1 67329U 26002AA  26024.16667824 -.02031263  00000+0 -16512-1 0  9995
2 67329  42.9993 219.8353 0001524 275.5584  88.8982 15.72834348  4242
STARLINK-36483          
1 67330U 26002AB  26024.16667824 -.02024709  00000+0 -16453-1 0  9998
2 67330  42.9994 219.8253 0001850 271.9788  96.3161 15.72828306  4411
STARLINK-36494          
1 67331U 26002AC  26024.16667824 -.02050032  00000+0 -16672-1 0  9990
2 67331  42.9994 219.8401 0001857 280.0653  82.4665 15.72848584  4411
