CCSDS_OMM_VERS = 2.0
CREATION_DATE  = 
ORIGINATOR     = 

OBJECT_NAME    = STARLINK-36500
OBJECT_ID      = 2026-002R
CENTER_NAME    = EARTH
REF_FRAME      = TEME
TIME_SYSTEM    = UTC
MEAN_ELEMENT_THEORY = SGP/SGP4

EPOCH          = 2026-01-23T20:26:44.771712
MEAN_MOTION    = 15.74563136
ECCENTRICITY   = .0001929
INCLINATION    = 42.9994
RA_OF_ASC_NODE = 221.7884
ARG_OF_PERICENTER = 316.3225
MEAN_ANOMALY   = 43.7491

EPHEMERIS_TYPE = 0
CLASSIFICATION_TYPE = U
NORAD_CAT_ID   = 67320
ELEMENT_SET_NO = 999
REV_AT_EPOCH   = 424
BSTAR          = -.37743E-2
MEAN_MOTION_DOT = -.533855E-2
MEAN_MOTION_DDOT = 0

CCSDS_OMM_VERS = 2.0
CREATION_DATE  = 
ORIGINATOR     = 

OBJECT_NAME    = STARLINK-36462
OBJECT_ID      = 2026-002S
CENTER_NAME    = EARTH
REF_FRAME      = TEME
TIME_SYSTEM    = UTC
MEAN_ELEMENT_THEORY = SGP/SGP4

EPOCH          = 2026-01-24T04:00:00.999936
MEAN_MOTION    = 15.72843111
ECCENTRICITY   = .0001864
INCLINATION    = 42.9992
RA_OF_ASC_NODE = 219.8752
ARG_OF_PERICENTER = 270.9367
MEAN_ANOMALY   = 78.1768

EPHEMERIS_TYPE = 0
CLASSIFICATION_TYPE = U
NORAD_CAT_ID   = 67321
ELEMENT_SET_NO = 999
REV_AT_EPOCH   = 426
BSTAR          = -.16589E-1
MEAN_MOTION_DOT = -.2040553E-1
MEAN_MOTION_DDOT = 0

CCSDS_OMM_VERS = 2.0
CREATION_DATE  = 
ORIGINATOR     = 

OBJECT_NAME    = STARLINK-36434
OBJECT_ID      = 2026-002T
CENTER_NAME    = EARTH
REF_FRAME      = TEME
TIME_SYSTEM    = UTC
MEAN_ELEMENT_THEORY = SGP/SGP4

EPOCH          = 2026-01-23T21:57:09.426816
MEAN_MOTION    = 15.76494826
ECCENTRICITY   = .0014127
INCLINATION    = 42.9984
RA_OF_ASC_NODE = 221.3994
ARG_OF_PERICENTER = 293.4863
MEAN_ANOMALY   = 66.4522

EPHEMERIS_TYPE = 0
CLASSIFICATION_TYPE = U
NORAD_CAT_ID   = 67322
ELEMENT_SET_NO = 999
REV_AT_EPOCH   = 419
BSTAR          = .54828E-2
MEAN_MOTION_DOT = .995776E-2
MEAN_MOTION_DDOT = 0

CCSDS_OMM_VERS = 2.0
CREATION_DATE  = 
ORIGINATOR     = 

OBJECT_NAME    = STARLINK-36497
OBJECT_ID      = 2026-002U
CENTER_NAME    = EARTH
REF_FRAME      = TEME
TIME_SYSTEM    = UTC
MEAN_ELEMENT_THEORY = SGP/SGP4

EPOCH          = 2026-01-24T04:00:00.999936
MEAN_MOTION    = 15.72848187
ECCENTRICITY   = .0001683
INCLINATION    = 42.9994
RA_OF_ASC_NODE = 219.8702
ARG_OF_PERICENTER = 276.7707
MEAN_ANOMALY   = 74.2584

EPHEMERIS_TYPE = 0
CLASSIFICATION_TYPE = U
NORAD_CAT_ID   = 67323
ELEMENT_SET_NO = 999
REV_AT_EPOCH   = 432
BSTAR          = -.16655E-1
MEAN_MOTION_DOT = -.2047924E-1
MEAN_MOTION_DDOT = 0

CCSDS_OMM_VERS = 2.0
CREATION_DATE  = 
ORIGINATOR     = 

OBJECT_NAME    = STARLINK-36471
OBJECT_ID      = 2026-002V
CENTER_NAME    = EARTH
REF_FRAME      = TEME
TIME_SYSTEM    = UTC
MEAN_ELEMENT_THEORY = SGP/SGP4

EPOCH          = 2026-01-24T04:00:00.999936
MEAN_MOTION    = 15.72848001
ECCENTRICITY   = .0001838
INCLINATION    = 42.9993
RA_OF_ASC_NODE = 219.8607
ARG_OF_PERICENTER = 275.9789
MEAN_ANOMALY   = 78.8858

EPHEMERIS_TYPE = 0
CLASSIFICATION_TYPE = U
NORAD_CAT_ID   = 67324
ELEMENT_SET_NO = 999
REV_AT_EPOCH   = 426
BSTAR          = -.16672E-1
MEAN_MOTION_DOT = -.2049925E-1
MEAN_MOTION_DDOT = 0

CCSDS_OMM_VERS = 2.0
CREATION_DATE  = 
ORIGINATOR     = 

OBJECT_NAME    = STARLINK-36473
OBJECT_ID      = 2026-002W
CENTER_NAME    = EARTH
REF_FRAME      = TEME
TIME_SYSTEM    = UTC
MEAN_ELEMENT_THEORY = SGP/SGP4

EPOCH          = 2026-01-23T21:55:41.609856
MEAN_MOTION    = 15.76498860
ECCENTRICITY   = .0014132
INCLINATION    = 42.9980
RA_OF_ASC_NODE = 221.3902
ARG_OF_PERICENTER = 292.8525
MEAN_ANOMALY   = 67.0852

EPHEMERIS_TYPE = 0
CLASSIFICATION_TYPE = U
NORAD_CAT_ID   = 67325
ELEMENT_SET_NO = 999
REV_AT_EPOCH   = 435
BSTAR          = .54292E-2
MEAN_MOTION_DOT = .985184E-2
MEAN_MOTION_DDOT = 0

CCSDS_OMM_VERS = 2.0
CREATION_DATE  = 
ORIGINATOR     = 

OBJECT_NAME    = STARLINK-36430
OBJECT_ID      = 2026-002X
CENTER_NAME    = EARTH
REF_FRAME      = TEME
TIME_SYSTEM    = UTC
MEAN_ELEMENT_THEORY = SGP/SGP4

EPOCH          = 2026-01-24T04:00:00.999936
MEAN_MOTION    = 15.72844205
ECCENTRICITY   = .0001833
INCLINATION    = 42.9993
RA_OF_ASC_NODE = 219.8500
ARG_OF_PERICENTER = 270.9080
MEAN_ANOMALY   = 87.7917

EPHEMERIS_TYPE = 0
CLASSIFICATION_TYPE = U
NORAD_CAT_ID   = 67326
ELEMENT_SET_NO = 999
REV_AT_EPOCH   = 441
BSTAR          = -.16616E-1
MEAN_MOTION_DOT = -.2043537E-1
MEAN_MOTION_DDOT = 0

CCSDS_OMM_VERS = 2.0
CREATION_DATE  = 
ORIGINATOR     = 

OBJECT_NAME    = STARLINK-36501
OBJECT_ID      = 2026-002Y
CENTER_NAME    = EARTH
REF_FRAME      = TEME
TIME_SYSTEM    = UTC
MEAN_ELEMENT_THEORY = SGP/SGP4

EPOCH          = 2026-01-23T20:23:48.628896
MEAN_MOTION    = 15.74765594
ECCENTRICITY   = .00042463
INCLINATION    = 42.9991
RA_OF_ASC_NODE = 221.7697
ARG_OF_PERICENTER = 138.9671
MEAN_ANOMALY   = 221.1518

EPHEMERIS_TYPE = 0
CLASSIFICATION_TYPE = U
NORAD_CAT_ID   = 67327
ELEMENT_SET_NO = 999
REV_AT_EPOCH   = 418
BSTAR          = .1209596E-2
MEAN_MOTION_DOT = .187321E-2
MEAN_MOTION_DDOT = 0

CCSDS_OMM_VERS = 2.0
CREATION_DATE  = 
ORIGINATOR     = 

OBJECT_NAME    = STARLINK-36489
OBJECT_ID      = 2026-002Z
CENTER_NAME    = EARTH
REF_FRAME      = TEME
TIME_SYSTEM    = UTC
MEAN_ELEMENT_THEORY = SGP/SGP4

EPOCH          = 2026-01-24T04:00:00.999936
MEAN_MOTION    = 15.72832452
ECCENTRICITY   = .0001783
INCLINATION    = 42.9993
RA_OF_ASC_NODE = 219.8460
ARG_OF_PERICENTER = 272.9307
MEAN_ANOMALY   = 87.6917

EPHEMERIS_TYPE = 0
CLASSIFICATION_TYPE = U
NORAD_CAT_ID   = 67328
ELEMENT_SET_NO = 999
REV_AT_EPOCH   = 441
BSTAR          = -.16479E-1
MEAN_MOTION_DOT = -.2027836E-1
MEAN_MOTION_DDOT = 0

CCSDS_OMM_VERS = 2.0
CREATION_DATE  = 
ORIGINATOR     = 

OBJECT_NAME    = STARLINK-36496
OBJECT_ID      = 2026-002AA
CENTER_NAME    = EARTH
REF_FRAME      = TEME
TIME_SYSTEM    = UTC
MEAN_ELEMENT_THEORY = SGP/SGP4

EPOCH          = 2026-01-24T04:00:00.999936
MEAN_MOTION    = 15.72834348
ECCENTRICITY   = .0001524
INCLINATION    = 42.9993
RA_OF_ASC_NODE = 219.8353
ARG_OF_PERICENTER = 275.5584
MEAN_ANOMALY   = 88.8982

EPHEMERIS_TYPE = 0
CLASSIFICATION_TYPE = U
NORAD_CAT_ID   = 67329
ELEMENT_SET_NO = 999
REV_AT_EPOCH   = 424
BSTAR          = -.16512E-1
MEAN_MOTION_DOT = -.2031263E-1
MEAN_MOTION_DDOT = 0

CCSDS_OMM_VERS = 2.0
CREATION_DATE  = 
ORIGINATOR     = 

OBJECT_NAME    = STARLINK-36483
OBJECT_ID      = 2026-002AB
CENTER_NAME    = EARTH
REF_FRAME      = TEME
TIME_SYSTEM    = UTC
MEAN_ELEMENT_THEORY = SGP/SGP4

EPOCH          = 2026-01-24T04:00:00.999936
MEAN_MOTION    = 15.72828306
ECCENTRICITY   = .000185
INCLINATION    = 42.9994
RA_OF_ASC_NODE = 219.8253
ARG_OF_PERICENTER = 271.9788
MEAN_ANOMALY   = 96.3161

EPHEMERIS_TYPE = 0
CLASSIFICATION_TYPE = U
NORAD_CAT_ID   = 67330
ELEMENT_SET_NO = 999
REV_AT_EPOCH   = 441
BSTAR          = -.16453E-1
MEAN_MOTION_DOT = -.2024709E-1
MEAN_MOTION_DDOT = 0

CCSDS_OMM_VERS = 2.0
CREATION_DATE  = 
ORIGINATOR     = 

OBJECT_NAME    = STARLINK-36494
OBJECT_ID      = 2026-002AC
CENTER_NAME    = EARTH
REF_FRAME      = TEME
TIME_SYSTEM    = UTC
MEAN_ELEMENT_THEORY = SGP/SGP4

EPOCH          = 2026-01-24T04:00:00.999936
MEAN_MOTION    = 15.72848584
ECCENTRICITY   = .0001857
INCLINATION    = 42.9994
RA_OF_ASC_NODE = 219.8401
ARG_OF_PERICENTER = 280.0653
MEAN_ANOMALY   = 82.4665

EPHEMERIS_TYPE = 0
CLASSIFICATION_TYPE = U
NORAD_CAT_ID   = 67331
ELEMENT_SET_NO = 999
REV_AT_EPOCH   = 441
BSTAR          = -.16672E-1
MEAN_MOTION_DOT = -.2050032E-1
MEAN_MOTION_DDOT = 0

